*******************************************************************************
 Revised : Jul 31, 2013                  Sun                                 10

 PHYSICAL PROPERTIES (revised Jan 16, 2014):
  GM (10^11 km^3/s^2)   = 1.3271244004193938  Mass (10^30 kg)   ~ 1.988544
  Radius (photosphere)  = 6.963(10^5) km  Angular diam at 1 AU  = 1919.3"
  Solar Radius (IAU)    = 6.955(10^5) km  Mean density          = 1.408 g/cm^3
  Surface gravity       =  274.0 m/s^2    Moment of inertia     = 0.059
  Escape velocity       =  617.7 km/s     Adopted sidereal per  = 25.38 d
  Pole (RA,DEC in deg.) =  286.13,63.87   Obliquity to ecliptic = 7 deg 15'        
  Solar constant (1 AU) = 1367.6 W/m^2    Solar lumin.(erg/s)   =  3.846(10^33)
  Mass-energy conv rate = 4.3(10^12 gm/s) Effective temp (K)    =  5778
  Surf. temp (photosphr)= 6600 K (bottom) Surf. temp (photosphr)=  4400 K (top)
  Photospheric depth    = ~400 km         Chromospheric depth   = ~2500 km
  Sunspot cycle         = 11.4 yr         Cycle 22 sunspot min. =  1991 A.D.

  Motn. rel to nrby strs= apex : RA=271 deg; DEC=+30 deg
                          speed: 19.4 km/s = 0.0112 AU/day
  Motn. rel to 2.73K BB = apex : l=264.7+-0.8; b=48.2+-0.5
                          speed: 369 +-11 km/s
*******************************************************************************
 
 
*******************************************************************************
Ephemeris / WWW_USER Wed Feb 17 23:39:56 2016 Pasadena, USA      / Horizons    
*******************************************************************************
Target body name: Sun (10)                        {source: DE431mx}
Center body name: Earth (399)                     {source: DE431mx}
Center-site name: GEOCENTRIC
*******************************************************************************
Start time      : A.D. 2016-Feb-19 18:00:00.0000 UT      
Stop  time      : A.D. 2016-Feb-20 01:00:00.0000 UT      
Step-size       : 1 minutes
*******************************************************************************
Target pole/equ : IAU_SUN                         {East-longitude +}
Target radii    : 696000.0 x 696000.0 x 696000.0 k{Equator, meridian, pole}    
Center geodetic : 0.00000000,0.00000000,0.0000000 {E-lon(deg),Lat(deg),Alt(km)}
Center cylindric: 0.00000000,0.00000000,0.0000000 {E-lon(deg),Dxy(km),Dz(km)}
Center pole/equ : High-precision EOP model        {East-longitude +}
Center radii    : 6378.1 x 6378.1 x 6356.8 km     {Equator, meridian, pole}    
Target primary  : Sun
Vis. interferer : MOON (R_eq= 1737.400) km        {source: DE431mx}
Rel. light bend : Sun, EARTH                      {source: DE431mx}
Rel. lght bnd GM: 1.3271E+11, 3.9860E+05 km^3/s^2                              
Atmos refraction: NO (AIRLESS)
RA format       : DEG
Time format     : BOTH
EOP file        : eop.160217.p160510                                           
EOP coverage    : DATA-BASED 1962-JAN-20 TO 2016-FEB-17. PREDICTS-> 2016-MAY-09
Units conversion: 1 au= 149597870.700 km, c= 299792.458 km/s, 1 day= 86400.0 s 
Table cut-offs 1: Elevation (-90.0deg=NO ),Airmass (>38.000=NO), Daylight (NO )
Table cut-offs 2: Solar Elongation (  0.0,180.0=NO ),Local Hour Angle( 0.0=NO )
**********************************************************************************
 Date__(UT)__HR:MN:SS Date_________JDUT     R.A._(J2000.0)_DEC.   NP.ang   NP.dist
**********************************************************************************
$$SOE
 2016-Feb-19 18:00:00 2457438.250000000     332.37867 -11.36467 341.2680   -963.59
 2016-Feb-19 18:01:00 2457438.250694444     332.37934 -11.36442 341.2678   -963.59
 2016-Feb-19 18:02:00 2457438.251388889     332.38001 -11.36417 341.2676   -963.59
 2016-Feb-19 18:03:00 2457438.252083333     332.38068 -11.36393 341.2673   -963.59
 2016-Feb-19 18:04:00 2457438.252777778     332.38135 -11.36368 341.2671   -963.59
 2016-Feb-19 18:05:00 2457438.253472222     332.38201 -11.36343 341.2669   -963.59
 2016-Feb-19 18:06:00 2457438.254166667     332.38268 -11.36319 341.2667   -963.59
 2016-Feb-19 18:07:00 2457438.254861111     332.38335 -11.36294 341.2665   -963.59
 2016-Feb-19 18:08:00 2457438.255555556     332.38402 -11.36269 341.2663   -963.59
 2016-Feb-19 18:09:00 2457438.256250000     332.38469 -11.36245 341.2660   -963.59
 2016-Feb-19 18:10:00 2457438.256944444     332.38536 -11.36220 341.2658   -963.59
 2016-Feb-19 18:11:00 2457438.257638889     332.38602 -11.36195 341.2656   -963.59
 2016-Feb-19 18:12:00 2457438.258333333     332.38669 -11.36171 341.2654   -963.59
 2016-Feb-19 18:13:00 2457438.259027778     332.38736 -11.36146 341.2652   -963.59
 2016-Feb-19 18:14:00 2457438.259722222     332.38803 -11.36121 341.2650   -963.59
 2016-Feb-19 18:15:00 2457438.260416667     332.38870 -11.36097 341.2647   -963.59
 2016-Feb-19 18:16:00 2457438.261111111     332.38937 -11.36072 341.2645   -963.59
 2016-Feb-19 18:17:00 2457438.261805556     332.39003 -11.36047 341.2643   -963.59
 2016-Feb-19 18:18:00 2457438.262500000     332.39070 -11.36023 341.2641   -963.59
 2016-Feb-19 18:19:00 2457438.263194445     332.39137 -11.35998 341.2639   -963.59
 2016-Feb-19 18:20:00 2457438.263888889     332.39204 -11.35973 341.2637   -963.59
 2016-Feb-19 18:21:00 2457438.264583333     332.39271 -11.35948 341.2634   -963.59
 2016-Feb-19 18:22:00 2457438.265277778     332.39338 -11.35924 341.2632   -963.59
 2016-Feb-19 18:23:00 2457438.265972222     332.39404 -11.35899 341.2630   -963.59
 2016-Feb-19 18:24:00 2457438.266666667     332.39471 -11.35874 341.2628   -963.59
 2016-Feb-19 18:25:00 2457438.267361111     332.39538 -11.35850 341.2626   -963.59
 2016-Feb-19 18:26:00 2457438.268055555     332.39605 -11.35825 341.2624   -963.59
 2016-Feb-19 18:27:00 2457438.268750000     332.39672 -11.35800 341.2621   -963.59
 2016-Feb-19 18:28:00 2457438.269444444     332.39739 -11.35776 341.2619   -963.59
 2016-Feb-19 18:29:00 2457438.270138889     332.39805 -11.35751 341.2617   -963.59
 2016-Feb-19 18:30:00 2457438.270833333     332.39872 -11.35726 341.2615   -963.59
 2016-Feb-19 18:31:00 2457438.271527778     332.39939 -11.35702 341.2613   -963.59
 2016-Feb-19 18:32:00 2457438.272222222     332.40006 -11.35677 341.2611   -963.59
 2016-Feb-19 18:33:00 2457438.272916667     332.40073 -11.35652 341.2608   -963.59
 2016-Feb-19 18:34:00 2457438.273611111     332.40139 -11.35628 341.2606   -963.59
 2016-Feb-19 18:35:00 2457438.274305556     332.40206 -11.35603 341.2604   -963.59
 2016-Feb-19 18:36:00 2457438.275000000     332.40273 -11.35578 341.2602   -963.59
 2016-Feb-19 18:37:00 2457438.275694444     332.40340 -11.35554 341.2600   -963.59
 2016-Feb-19 18:38:00 2457438.276388889     332.40407 -11.35529 341.2598   -963.59
 2016-Feb-19 18:39:00 2457438.277083333     332.40474 -11.35504 341.2595   -963.59
 2016-Feb-19 18:40:00 2457438.277777778     332.40540 -11.35480 341.2593   -963.58
 2016-Feb-19 18:41:00 2457438.278472222     332.40607 -11.35455 341.2591   -963.58
 2016-Feb-19 18:42:00 2457438.279166667     332.40674 -11.35430 341.2589   -963.58
 2016-Feb-19 18:43:00 2457438.279861111     332.40741 -11.35406 341.2587   -963.58
 2016-Feb-19 18:44:00 2457438.280555556     332.40808 -11.35381 341.2585   -963.58
 2016-Feb-19 18:45:00 2457438.281250000     332.40875 -11.35356 341.2582   -963.58
 2016-Feb-19 18:46:00 2457438.281944444     332.40941 -11.35332 341.2580   -963.58
 2016-Feb-19 18:47:00 2457438.282638889     332.41008 -11.35307 341.2578   -963.58
 2016-Feb-19 18:48:00 2457438.283333333     332.41075 -11.35282 341.2576   -963.58
 2016-Feb-19 18:49:00 2457438.284027778     332.41142 -11.35257 341.2574   -963.58
 2016-Feb-19 18:50:00 2457438.284722222     332.41209 -11.35233 341.2572   -963.58
 2016-Feb-19 18:51:00 2457438.285416667     332.41275 -11.35208 341.2569   -963.58
 2016-Feb-19 18:52:00 2457438.286111111     332.41342 -11.35183 341.2567   -963.58
 2016-Feb-19 18:53:00 2457438.286805556     332.41409 -11.35159 341.2565   -963.58
 2016-Feb-19 18:54:00 2457438.287500000     332.41476 -11.35134 341.2563   -963.58
 2016-Feb-19 18:55:00 2457438.288194444     332.41543 -11.35109 341.2561   -963.58
 2016-Feb-19 18:56:00 2457438.288888889     332.41610 -11.35085 341.2559   -963.58
 2016-Feb-19 18:57:00 2457438.289583333     332.41676 -11.35060 341.2556   -963.58
 2016-Feb-19 18:58:00 2457438.290277778     332.41743 -11.35035 341.2554   -963.58
 2016-Feb-19 18:59:00 2457438.290972222     332.41810 -11.35011 341.2552   -963.58
 2016-Feb-19 19:00:00 2457438.291666667     332.41877 -11.34986 341.2550   -963.58
 2016-Feb-19 19:01:00 2457438.292361111     332.41944 -11.34961 341.2548   -963.58
 2016-Feb-19 19:02:00 2457438.293055556     332.42011 -11.34937 341.2546   -963.58
 2016-Feb-19 19:03:00 2457438.293750000     332.42077 -11.34912 341.2544   -963.58
 2016-Feb-19 19:04:00 2457438.294444445     332.42144 -11.34887 341.2541   -963.58
 2016-Feb-19 19:05:00 2457438.295138889     332.42211 -11.34863 341.2539   -963.58
 2016-Feb-19 19:06:00 2457438.295833333     332.42278 -11.34838 341.2537   -963.58
 2016-Feb-19 19:07:00 2457438.296527778     332.42345 -11.34813 341.2535   -963.58
 2016-Feb-19 19:08:00 2457438.297222222     332.42411 -11.34788 341.2533   -963.58
 2016-Feb-19 19:09:00 2457438.297916667     332.42478 -11.34764 341.2531   -963.58
 2016-Feb-19 19:10:00 2457438.298611111     332.42545 -11.34739 341.2528   -963.58
 2016-Feb-19 19:11:00 2457438.299305555     332.42612 -11.34714 341.2526   -963.58
 2016-Feb-19 19:12:00 2457438.300000000     332.42679 -11.34690 341.2524   -963.58
 2016-Feb-19 19:13:00 2457438.300694444     332.42746 -11.34665 341.2522   -963.58
 2016-Feb-19 19:14:00 2457438.301388889     332.42812 -11.34640 341.2520   -963.58
 2016-Feb-19 19:15:00 2457438.302083333     332.42879 -11.34616 341.2518   -963.58
 2016-Feb-19 19:16:00 2457438.302777778     332.42946 -11.34591 341.2515   -963.58
 2016-Feb-19 19:17:00 2457438.303472222     332.43013 -11.34566 341.2513   -963.58
